NORAD_CAT_ID,OBJECT_NAME,OBJECT_TYPE,EPOCH,MEAN_MOTION,ECCENTRICITY,INCLINATION,RA_OF_ASC_NODE,ARG_OF_PERICENTER,MEAN_ANOMALY,BSTAR,MEAN_MOTION_DOT,MEAN_MOTION_DDOT,TLE_LINE0,TLE_LINE1,TLE_LINE2,SEMIMAJOR_AXIS,PERIOD,APOGEE,PERIGEE,DECAYED
53254.0,STARLINK-4134,PAYLOAD,2023-02-20 00:16:44,15.08835731,0.0001506,53.2158,153.6193,68.3749,291.7403,0.00015775,2.223e-05,0.0,0 STARLINK-4134,1 53254U 22086N   23051.01162517  .00002223  00000-0  15775-3 0  9998,2 53254  53.2158 153.6193 0001506  68.3749 291.7403 15.08835731 32756,6917.893,95.438,540.8,538.717,0.0
53254.0,STARLINK-4134,PAYLOAD,2023-02-20 12:59:49,15.08841648,0.0001312,53.215,151.2397,70.23,289.8833,0.0001151,1.544e-05,0.0,0 STARLINK-4134,1 53254U 22086N   23051.54154315  .00001544  00000-0  11510-3 0  9991,2 53254  53.2150 151.2397 0001312  70.2300 289.8833 15.08841648 33039,6917.875,95.437,540.648,538.833,0.0
53254.0,STARLINK-4134,PAYLOAD,2023-02-20 17:45:57,15.08853583,0.0001334,53.2169,150.3466,81.0342,279.0801,0.00017751,2.539e-05,0.0,0 STARLINK-4134,1 53254U 22086N   23051.74025366  .00002539  00000-0  17751-3 0  9994,2 53254  53.2169 150.3466 0001334  81.0342 279.0801 15.08853583 32863,6917.839,95.437,540.627,538.781,0.0
53254.0,STARLINK-4134,PAYLOAD,2023-02-21 12:50:35,15.08855301,0.0001258,53.2151,146.7782,80.5649,279.5486,0.00021153,3.082e-05,0.0,0 STARLINK-4134,1 53254U 22086N   23052.53513538  .00003082  00000-0  21153-3 0  9990,2 53254  53.2151 146.7782 0001258  80.5649 279.5486 15.08855301 32980,6917.834,95.437,540.569,538.828,0.0
53254.0,STARLINK-4134,PAYLOAD,2023-02-21 17:36:44,15.08863819,0.0001127,53.2151,145.8863,73.0864,287.0251,0.00028109,4.191e-05,0.0,0 STARLINK-4134,1 53254U 22086N   23052.73384616  .00004191  00000-0  28109-3 0  9995,2 53254  53.2151 145.8863 0001127  73.0864 287.0251 15.08863819 33013,6917.808,95.436,540.452,538.893,0.0
53254.0,STARLINK-4134,PAYLOAD,2023-02-22 11:05:59,15.08843668,0.000139,53.2153,142.6139,106.0713,254.0433,7.2551e-05,8.67e-06,0.0,0 STARLINK-4134,1 53254U 22086N   23053.46249759  .00000867  00000-0  72551-4 0  9991,2 53254  53.2153 142.6139 0001390 106.0713 254.0433 15.08843668 33126,6917.869,95.437,540.696,538.773,0.0
53254.0,STARLINK-4134,PAYLOAD,2023-02-22 12:41:22,15.08846807,0.0001304,53.2155,142.3179,100.8424,259.2715,-2.2823e-05,-6.51e-06,0.0,0 STARLINK-4134,1 53254U 22086N   23053.52873498 -.00000651  00000-0 -22823-4 0  9991,2 53254  53.2155 142.3179 0001304 100.8424 259.2715 15.08846807 33336,6917.86,95.437,540.627,538.822,0.0
53254.0,STARLINK-4134,PAYLOAD,2023-02-22 22:13:42,15.08826889,0.0001217,53.2156,140.5339,93.5879,266.5252,-0.00027058,-4.59e-05,0.0,0 STARLINK-4134,1 53254U 22086N   23053.92618395 -.00004590  00000-0 -27058-3 0  9998,2 53254  53.2156 140.5339 0001217  93.5879 266.5252 15.08826889 33391,6917.92,95.438,540.627,538.944,0.0
53254.0,STARLINK-4134,PAYLOAD,2023-02-23 12:32:09,15.08844723,0.0001032,53.2149,137.8571,98.7848,261.3261,1.2553e-05,-8.8e-07,0.0,0 STARLINK-4134,1 53254U 22086N   23054.52233753 -.00000088  00000-0  12553-4 0  9998,2 53254  53.2149 137.8571 0001032  98.7848 261.3261 15.08844723 33488,6917.866,95.437,540.445,539.017,0.0
53254.0,STARLINK-4134,PAYLOAD,2023-02-23 14:07:33,15.08846784,0.0001135,53.2149,137.5594,104.4637,255.6482,0.00013866,1.92e-05,0.0,0 STARLINK-4134,1 53254U 22086N   23054.58857690  .00001920  00000-0  13866-3 0  9998,2 53254  53.2149 137.5594 0001135 104.4637 255.6482 15.08846784 33294,6917.86,95.437,540.51,538.939,0.0
53254.0,STARLINK-4134,PAYLOAD,2023-02-23 17:18:19,15.08851028,0.0001119,53.2146,136.9644,116.193,243.9177,0.00038237,5.805e-05,0.0,0 STARLINK-4134,1 53254U 22086N   23054.72105615  .00005805  00000-0  38237-3 0  9992,2 53254  53.2146 136.9644 0001119 116.1930 243.9177 15.08851028 33511,6917.847,95.437,540.486,538.938,0.0
53254.0,STARLINK-4134,PAYLOAD,2023-02-23 22:04:29,15.08828032,7.4e-05,53.2148,136.0737,146.9144,213.1895,-7.4708e-05,-1.476e-05,0.0,0 STARLINK-4134,1 53254U 22086N   23054.91978179 -.00001476  00000-0 -74708-4 0  9992,2 53254  53.2148 136.0737 0000740 146.9144 213.1895 15.08828032 33340,6917.917,95.438,540.294,539.27,0.0
53254.0,STARLINK-4134,PAYLOAD,2023-02-24 12:22:57,15.08856843,0.0001099,53.2145,133.3973,119.3996,240.7106,0.00074616,0.00011613,0.0,0 STARLINK-4134,1 53254U 22086N   23055.51593925  .00011613  00000-0  74616-3 0  9990,2 53254  53.2145 133.3973 0001099 119.3996 240.7106 15.08856843 33630,6917.829,95.436,540.454,538.934,0.0
53254.0,STARLINK-4134,PAYLOAD,2023-02-24 13:58:20,15.08858711,9.35e-05,53.2138,133.0985,114.0059,246.1031,0.0013013,0.00020493,0.0,0 STARLINK-4134,1 53254U 22086N   23055.58217903  .00020493  00000-0  13013-2 0  9995,2 53254  53.2138 133.0985 0000935 114.0059 246.1031 15.08858711 33444,6917.823,95.436,540.335,539.041,0.0
53254.0,STARLINK-4134,PAYLOAD,2023-02-24 17:09:06,15.08869501,8.93e-05,53.2138,132.5046,119.47,240.6381,0.0017963,0.00028439,0.0,0 STARLINK-4134,1 53254U 22086N   23055.71465688  .00028439  00000-0  17963-2 0  9991,2 53254  53.2138 132.5046 0000893 119.4700 240.6381 15.08869501 33661,6917.79,95.436,540.273,539.037,0.0
53254.0,STARLINK-4134,PAYLOAD,2023-02-24 21:55:15,15.08845839,6.08e-05,53.2139,131.6127,103.1936,256.9124,0.00030846,4.626e-05,0.0,0 STARLINK-4134,1 53254U 22086N   23055.91337947  .00004626  00000-0  30846-3 0  9997,2 53254  53.2139 131.6127 0000608 103.1936 256.9124 15.08845839 33491,6917.863,95.437,540.148,539.307,0.0
53254.0,STARLINK-4134,PAYLOAD,2023-02-25 04:16:48,15.08834932,0.0001253,53.2138,130.4236,93.5693,266.5442,0.00023627,3.474e-05,0.0,0 STARLINK-4134,1 53254U 22086N   23056.17834475  .00003474  00000-0  23627-3 0  9993,2 53254  53.2138 130.4236 0001253  93.5693 266.5442 15.08834932 33534,6917.896,95.438,540.628,538.894,0.0
53254.0,STARLINK-4134,PAYLOAD,2023-02-25 13:49:08,15.08833192,7.84e-05,53.2134,128.6386,91.7497,268.3585,0.0015584,0.00024596,0.0,0 STARLINK-4134,1 53254U 22086N   23056.57579053  .00024596  00000-0  15584-2 0  9995,2 53254  53.2134 128.6386 0000784  91.7497 268.3585 15.08833192 33798,6917.901,95.438,540.309,539.224,0.0
53254.0,STARLINK-4134,PAYLOAD,2023-02-25 16:59:54,15.08836254,9.57e-05,53.2138,128.0441,87.7362,272.374,0.00063197,9.783e-05,0.0,0 STARLINK-4134,1 53254U 22086N   23056.70827084  .00009783  00000-0  63197-3 0  9995,2 53254  53.2138 128.0441 0000957  87.7362 272.3740 15.08836254 33819,6917.892,95.438,540.419,539.095,0.0
53254.0,STARLINK-4134,PAYLOAD,2023-02-26 08:53:45,15.08859449,9.98e-05,53.2139,125.0709,80.3995,279.711,0.0013496,0.00021268,0.0,0 STARLINK-4134,1 53254U 22086N   23057.37066975  .00021268  00000-0  13496-2 0  9991,2 53254  53.2139 125.0709 0000998  80.3995 279.7110 15.08859449 33712,6917.821,95.436,540.376,538.996,0.0
53254.0,STARLINK-4134,PAYLOAD,2023-02-26 10:29:08,15.08862571,0.0001028,53.2139,124.7732,80.5531,279.5577,0.0013626,0.00021478,0.0,0 STARLINK-4134,1 53254U 22086N   23057.43690865  .00021478  00000-0  13626-2 0  9997,2 53254  53.2139 124.7732 0001028  80.5531 279.5577 15.08862571 33925,6917.811,95.436,540.388,538.965,0.0
53254.0,STARLINK-4134,PAYLOAD,2023-02-26 21:36:50,15.08853773,0.0001032,53.2137,122.6911,100.0493,260.0616,0.00061262,9.479e-05,0.0,0 STARLINK-4134,1 53254U 22086N   23057.90058718  .00009479  00000-0  61262-3 0  9991,2 53254  53.2137 122.6911 0001032 100.0493 260.0616 15.08853773 33999,6917.838,95.437,540.417,538.989,0.0
53254.0,STARLINK-4134,PAYLOAD,2023-02-27 03:58:23,15.0884472,0.0001702,53.2144,121.5044,89.4537,270.665,0.00068801,0.0001068,0.0,0 STARLINK-4134,1 53254U 22086N   23058.16555094  .00010680  00000-0  68801-3 0  9991,2 53254  53.2144 121.5044 0001702  89.4537 270.6650 15.08844720 33835,6917.866,95.437,540.908,538.554,0.0
53254.0,STARLINK-4134,PAYLOAD,2023-02-27 10:19:56,15.0887264,0.0001116,53.2138,120.3121,104.1638,255.9478,0.0041597,0.00066599,0.0,0 STARLINK-4134,1 53254U 22086N   23058.43051117  .00066599  00000-0  41597-2 0  9990,2 53254  53.2138 120.3121 0001116 104.1638 255.9478 15.08872640 33877,6917.781,95.435,540.418,538.874,0.0
53254.0,STARLINK-4134,PAYLOAD,2023-02-27 21:27:38,15.08850173,0.0001414,53.214,118.2303,86.2413,273.8741,0.0014703,0.00023196,0.0,0 STARLINK-4134,1 53254U 22086N   23058.89419216  .00023196  00000-0  14703-2 0  9993,2 53254  53.2140 118.2303 0001414  86.2413 273.8741 15.08850173 34140,6917.849,95.437,540.692,538.736,0.0
53254.0,STARLINK-4134,PAYLOAD,2023-02-28 13:21:28,15.08908444,7.45e-05,53.2156,115.2561,86.1391,273.9686,0.0028215,0.00044987,0.0,0 STARLINK-4134,1 53254U 22086N   23059.55657608  .00044987  00000-0  28215-2 0  9990,2 53254  53.2156 115.2561 0000745  86.1391 273.9686 15.08908444 34245,6917.671,95.433,540.052,539.021,0.0
53254.0,STARLINK-4134,PAYLOAD,2023-02-28 14:56:51,15.08869427,8.55e-05,53.2157,114.9582,132.9593,227.1471,0.001086,0.00017052,0.0,0 STARLINK-4134,1 53254U 22086N   23059.62282009  .00017052  00000-0  10860-2 0  9997,2 53254  53.2157 114.9582 0000855 132.9593 227.1471 15.08869427 34252,6917.79,95.436,540.247,539.064,0.0
53254.0,STARLINK-4134,PAYLOAD,2023-03-01 10:01:31,15.08821333,0.0001434,53.2153,111.3897,102.6588,257.4565,-0.00019447,-3.38e-05,0.0,0 STARLINK-4134,1 53254U 22086N   23060.41772146 -.00003380  00000-0 -19447-3 0  9994,2 53254  53.2153 111.3897 0001434 102.6588 257.4565 15.08821333 34175,6917.937,95.439,540.794,538.81,0.0
53254.0,STARLINK-4134,PAYLOAD,2023-03-01 13:12:17,15.08817964,0.0001493,53.2152,110.7941,96.5263,263.59,-2.3793e-05,-6.66e-06,0.0,0 STARLINK-4134,1 53254U 22086N   23060.55020472 -.00000666  00000-0 -23793-4 0  9991,2 53254  53.2152 110.7941 0001493  96.5263 263.5900 15.08817964 34393,6917.948,95.439,540.846,538.78,0.0
53254.0,STARLINK-4134,PAYLOAD,2023-03-02 03:30:46,15.08835616,0.0001515,53.2156,108.119,81.4186,278.6977,0.0010437,0.0001636,0.0,0 STARLINK-4134,1 53254U 22086N   23061.14636848  .00016360  00000-0  10437-2 0  9992,2 53254  53.2156 108.1190 0001515  81.4186 278.6977 15.08835616 34289,6917.894,95.438,540.807,538.711,0.0
